metar1 = '2018/09/04 17:00\nSBRJ 041700Z 21013KT 9999 SCT030 26/13 Q1009'
